NORAD_CAT_ID,OBJECT_NAME,OBJECT_TYPE,EPOCH,MEAN_MOTION,ECCENTRICITY,INCLINATION,RA_OF_ASC_NODE,ARG_OF_PERICENTER,MEAN_ANOMALY,BSTAR,MEAN_MOTION_DOT,MEAN_MOTION_DDOT,TLE_LINE0,TLE_LINE1,TLE_LINE2,SEMIMAJOR_AXIS,PERIOD,APOGEE,PERIGEE,DECAYED
49414.0,STARLINK-3146,PAYLOAD,2022-10-29 08:28:46,15.08833877,0.0002628,53.2179,338.8501,28.6651,331.4485,-6.6983e-05,-1.354e-05,0.0,0 STARLINK-3146,1 49414U 21104G   22302.35331263 -.00001354  00000-0 -66983-4 0  9996,2 49414  53.2179 338.8501 0002628  28.6651 331.4485 15.08833877 53348,6917.899,95.438,541.582,537.946,0.0
49414.0,STARLINK-3146,PAYLOAD,2022-10-29 19:36:27,15.08848663,0.0002648999999999,53.2178,336.7686,27.1612,332.9519,1.7678e-05,-7e-08,0.0,0 STARLINK-3146,1 49414U 21104G   22302.81698084 -.00000007  00000-0  17678-4 0  9994,2 49414  53.2178 336.7686 0002649  27.1612 332.9519 15.08848663 53413,6917.854,95.437,541.5509999999998,537.886,0.0
49414.0,STARLINK-3146,PAYLOAD,2022-10-30 11:30:19,15.0882981,0.0002679,53.2177,333.7964,29.4037,330.7106,-4.4144e-05,-9.91e-06,0.0,0 STARLINK-3146,1 49414U 21104G   22303.47938956 -.00000991  00000-0 -44144-4 0  9993,2 49414  53.2177 333.7964 0002679  29.4037 330.7106 15.08829810 53519,6917.9119999999975,95.438,541.63,537.923,0.0
49414.0,STARLINK-3146,PAYLOAD,2022-10-30 19:27:15,15.08829485,0.0002699,53.217,332.3079,30.1897,329.9251,-3.9981e-05,-9.25e-06,0.0,0 STARLINK-3146,1 49414U 21104G   22303.81059224 -.00000925  00000-0 -39981-4 0  9993,2 49414  53.2170 332.3079 0002699  30.1897 329.9251 15.08829485 53563,6917.913000000001,95.438,541.645,537.91,0.0
49414.0,STARLINK-3146,PAYLOAD,2022-10-31 08:10:20,15.08830686,0.0002781,53.2172,329.9292,30.9636,329.1519,9.8921e-06,-1.31e-06,0.0,0 STARLINK-3146,1 49414U 21104G   22304.34051592 -.00000131  00000-0  98921-5 0  9990,2 49414  53.2172 329.9292 0002781  30.9636 329.1519 15.08830686 53648,6917.909000000002,95.438,541.698,537.85,0.0
49414.0,STARLINK-3146,PAYLOAD,2022-10-31 11:21:07,15.08829694,0.0002862,53.2174,329.3348,28.952,331.163,1.2061e-05,-9.7e-07,0.0,0 STARLINK-3146,1 49414U 21104G   22304.47299793 -.00000097  00000-0  12061-4 0  9992,2 49414  53.2174 329.3348 0002862  28.9520 331.1630 15.08829694 54752,6917.9119999999975,95.438,541.757,537.797,0.0
49414.0,STARLINK-3146,PAYLOAD,2022-11-01 01:39:35,15.08841348,0.0002833,53.2171,326.6585,30.1762,329.9392,0.00021507,3.136e-05,0.0,0 STARLINK-3146,1 49414U 21104G   22305.06915574  .00003136  00000-0  21507-3 0  9990,2 49414  53.2171 326.6585 0002833  30.1762 329.9392 15.08841348 54843,6917.876,95.437,541.701,537.781,0.0
49414.0,STARLINK-3146,PAYLOAD,2022-11-01 11:11:54,15.08840448,0.0002811,53.2172,324.8744,30.4238,329.6917,0.0002552999999999,3.777e-05,0.0,0 STARLINK-3146,1 49414U 21104G   22305.46659844  .00003777  00000-0  25530-3 0  9990,2 49414  53.2172 324.8744 0002811  30.4238 329.6917 15.08840448 53814,6917.879,95.438,541.689,537.799,0.0
49414.0,STARLINK-3146,PAYLOAD,2022-11-01 12:47:17,15.08841422,0.0002847,53.2171,324.5768,30.9523,329.1636,0.00032078,4.821e-05,0.0,0 STARLINK-3146,1 49414U 21104G   22305.53283917  .00004821  00000-0  32078-3 0  9998,2 49414  53.2171 324.5768 0002847  30.9523 329.1636 15.08841422 53824,6917.876,95.437,541.711,537.7719999999998,0.0
49414.0,STARLINK-3146,PAYLOAD,2022-11-02 11:02:41,15.08840086,0.0002836999999999,53.2167,320.4143,29.8539,330.2615,0.00012678,1.73e-05,0.0,0 STARLINK-3146,1 49414U 21104G   22306.46019813  .00001730  00000-0  12678-3 0  9993,2 49414  53.2167 320.4143 0002837  29.8539 330.2615 15.08840086 53964,6917.88,95.438,541.7080000000002,537.783,0.0
49414.0,STARLINK-3146,PAYLOAD,2022-11-02 12:38:04,15.08839822,0.000284,53.2166,320.1169,29.84800000000001,330.2674,0.00010681,1.412e-05,0.0,0 STARLINK-3146,1 49414U 21104G   22306.52643814  .00001412  00000-0  10681-3 0  9993,2 49414  53.2166 320.1169 0002840  29.8480 330.2674 15.08839822 53979,6917.880999999999,95.438,541.711,537.781,0.0
49414.0,STARLINK-3146,PAYLOAD,2022-11-03 02:56:31,15.08853382,0.0002796,53.2168,317.4399,30.1927,329.9226,0.00030934,4.64e-05,0.0,0 STARLINK-3146,1 49414U 21104G   22307.12259155  .00004640  00000-0  30934-3 0  9990,2 49414  53.2168 317.4399 0002796  30.1927 329.9226 15.08853382 55153,6917.839,95.437,541.639,537.77,0.0
49414.0,STARLINK-3146,PAYLOAD,2022-11-03 12:28:50,15.08854315,0.0002829,53.2169,315.6559,29.3241,330.7909,0.00027838,4.147e-05,0.0,0 STARLINK-3146,1 49414U 21104G   22307.52002927  .00004147  00000-0  27838-3 0  9998,2 49414  53.2169 315.6559 0002829  29.3241 330.7909 15.08854315 54129,6917.837,95.437,541.659,537.745,0.0
49414.0,STARLINK-3146,PAYLOAD,2022-11-04 09:08:50,15.08861071,0.0002856999999999,53.2167,311.7901,30.3979,329.7179,0.00031109,4.669e-05,0.0,0 STARLINK-3146,1 49414U 21104G   22308.38113940  .00004669  00000-0  31109-3 0  9996,2 49414  53.2167 311.7901 0002857  30.3979 329.7179 15.08861071 55345,6917.816,95.436,541.6569999999998,537.705,0.0
49414.0,STARLINK-3146,PAYLOAD,2022-11-04 12:19:37,15.08848343,0.0003074,53.2168,311.1964,30.4907,329.6263,4.6228e-05,4.47e-06,0.0,0 STARLINK-3146,1 49414U 21104G   22308.51362355  .00000447  00000-0  46228-4 0  9996,2 49414  53.2168 311.1964 0003074  30.4907 329.6263 15.08848343 54274,6917.855,95.437,541.846,537.5930000000002,0.0
49414.0,STARLINK-3146,PAYLOAD,2022-11-05 07:24:14,15.08843238,0.0002743,53.2166,307.6271,29.0275,331.0869,-0.00017591,-3.088e-05,0.0,0 STARLINK-3146,1 49414U 21104G   22309.30850247 -.00003088  00000-0 -17591-3 0  9992,2 49414  53.2166 307.6271 0002743  29.0275 331.0869 15.08843238 55488,6917.87,95.437,541.633,537.8380000000002,0.0
49414.0,STARLINK-3146,PAYLOAD,2022-11-05 12:10:24,15.08827879,0.0002865,53.2163,306.7352,28.38,331.7348,-0.00026882,-4.563e-05,0.0,0 STARLINK-3146,1 49414U 21104G   22309.50723144 -.00004563  00000-0 -26882-3 0  9991,2 49414  53.2163 306.7352 0002865  28.3800 331.7348 15.08827879 54421,6917.917,95.438,541.764,537.8,0.0
49414.0,STARLINK-3146,PAYLOAD,2022-11-06 10:25:49,15.08836281,0.0002893,53.2176,302.5714,32.6318,327.4852,-6.7583e-05,-1.364e-05,0.0,0 STARLINK-3146,1 49414U 21104G   22310.43460221 -.00001364  00000-0 -67583-4 0  9999,2 49414  53.2176 302.5714 0002893  32.6318 327.4852 15.08836281 54568,6917.892,95.438,541.758,537.755,0.0
49414.0,STARLINK-3146,PAYLOAD,2022-11-06 16:47:21,15.08837093,0.000285,53.2175,301.3818,30.4516,329.6641,7.2495e-05,8.65e-06,0.0,0 STARLINK-3146,1 49414U 21104G   22310.69955889  .00000865  00000-0  72495-4 0  9997,2 49414  53.2175 301.3818 0002850  30.4516 329.6641 15.08837093 55695,6917.889,95.438,541.726,537.783,0.0
49414.0,STARLINK-3146,PAYLOAD,2022-11-07 02:19:40,15.08845665,0.0002783,53.2176,299.5975,31.3493,328.7665,0.0001533,2.153e-05,0.0,0 STARLINK-3146,1 49414U 21104G   22311.09699286  .00002153  00000-0  15330-3 0  9994,2 49414  53.2176 299.5975 0002783  31.3493 328.7665 15.08845665 55754,6917.863,95.437,541.653,537.803,0.0
49414.0,STARLINK-3146,PAYLOAD,2022-11-07 08:41:13,15.08835727,0.0002836,53.2167,298.4082,30.5085,329.6071,0.00020729,3.012e-05,0.0,0 STARLINK-3146,1 49414U 21104G   22311.36196336  .00003012  00000-0  20729-3 0  9995,2 49414  53.2167 298.4082 0002836  30.5085 329.6071 15.08835727 55791,6917.893,95.438,541.72,537.797,0.0
49414.0,STARLINK-3146,PAYLOAD,2022-11-07 11:51:59,15.0883916,0.0002833,53.2167,297.8135,30.1947,329.9208,0.0002527,3.736e-05,0.0,0 STARLINK-3146,1 49414U 21104G   22311.49444269  .00003736  00000-0  25270-3 0  9999,2 49414  53.2167 297.8135 0002833  30.1947 329.9208 15.08839160 54725,6917.8830000000025,95.438,541.7080000000002,537.788,0.0
49414.0,STARLINK-3146,PAYLOAD,2022-11-08 05:21:13,15.08853122,0.0002717,53.2162,294.5425,30.6069,329.5081,0.00039959,6.079e-05,0.0,0 STARLINK-3146,1 49414U 21104G   22312.22307789  .00006079  00000-0  39959-3 0  9998,2 49414  53.2162 294.5425 0002717  30.6069 329.5081 15.08853122 55929,6917.84,95.437,541.585,537.826,0.0
49414.0,STARLINK-3146,PAYLOAD,2022-11-08 08:32:00,15.08859146,0.0002737,53.216,293.9474,33.5225,326.594,0.00047363,7.262e-05,0.0,0 STARLINK-3146,1 49414U 21104G   22312.35555586  .00007262  00000-0  47363-3 0  9995,2 49414  53.2160 293.9474 0002737  33.5225 326.5940 15.08859146 54856,6917.821999999999,95.436,541.58,537.793,0.0
49414.0,STARLINK-3146,PAYLOAD,2022-11-08 16:28:55,15.08862753,0.0002811,53.2158,292.4606,31.9813,328.1349,0.00053455,8.235e-05,0.0,0 STARLINK-3146,1 49414U 21104G   22312.68675270  .00008235  00000-0  53455-3 0  9994,2 49414  53.2158 292.4606 0002811  31.9813 328.1349 15.08862753 54907,6917.811,95.436,541.62,537.731,0.0
49414.0,STARLINK-3146,PAYLOAD,2022-11-09 08:22:46,15.08851158,0.0003202,53.2161,289.4884,25.3378,334.7771,-0.00033677,-5.647e-05,0.0,0 STARLINK-3146,1 49414U 21104G   22313.34914470 -.00005647  00000-0 -33677-3 0  9996,2 49414  53.2161 289.4884 0003202  25.3378 334.7771 15.08851158 56094,6917.846,95.437,541.9259999999998,537.496,0.0
49414.0,STARLINK-3146,PAYLOAD,2022-11-09 09:58:09,15.08845055,0.0002841,53.2162,289.1896,27.9878,332.1266,-0.00024086,-4.121e-05,0.0,0 STARLINK-3146,1 49414U 21104G   22313.41538801 -.00004121  00000-0 -24086-3 0  9994,2 49414  53.2162 289.1896 0002841  27.9878 332.1266 15.08845055 55017,6917.865,95.437,541.695,537.765,0.0
49414.0,STARLINK-3146,PAYLOAD,2022-11-10 12:59:43,15.088286300000002,0.000254,53.2165,284.1343,28.7957,331.3175,-0.00015532,-2.759e-05,0.0,0 STARLINK-3146,1 49414U 21104G   22314.54147249 -.00002759  00000-0 -15532-3 0  9992,2 49414  53.2165 284.1343 0002540  28.7957 331.3175 15.08828630 55183,6917.915,95.438,541.5369999999998,538.023,0.0
49414.0,STARLINK-3146,PAYLOAD,2022-11-10 20:56:39,15.08816619,0.0003486,53.2182,282.649,27.1763,332.9411,-0.00022579,-3.879e-05,0.0,0 STARLINK-3146,1 49414U 21104G   22314.87268302 -.00003879  00000-0 -22579-3 0  9995,2 49414  53.2182 282.6490 0003486  27.1763 332.9411 15.08816619 55236,6917.9519999999975,95.439,542.2280000000002,537.405,0.0
